[{"OBJECT_NAME":"STARLINK-30075","OBJECT_ID":"2023-119Q","EPOCH":"2026-03-09T22:00:01.999584","MEAN_MOTION":15.2263159,"ECCENTRICITY":0.0001352,"INCLINATION":43.0009,"RA_OF_ASC_NODE":79.7016,"ARG_OF_PERICENTER":227.8625,"MEAN_ANOMALY":290.7917,"EPHEMERIS_TYPE":0,"CLASSIFICATION_TYPE":"U","NORAD_CAT_ID":57616,"ELEMENT_SET_NO":999,"REV_AT_EPOCH":573,"BSTAR":0.044527493,"MEAN_MOTION_DOT":0.01146651,"MEAN_MOTION_DDOT":0},{"OBJECT_NAME":"R5-S2","OBJECT_ID":"2024-125E","EPOCH":"2026-03-09T14:04:51.040704","MEAN_MOTION":15.41576958,"ECCENTRICITY":0.0015901,"INCLINATION":97.2494,"RA_OF_ASC_NODE":281.0493,"ARG_OF_PERICENTER":228.6061,"MEAN_ANOMALY":131.382,"EPHEMERIS_TYPE":0,"CLASSIFICATION_TYPE":"U","NORAD_CAT_ID":60207,"ELEMENT_SET_NO":999,"REV_AT_EPOCH":9382,"BSTAR":0.00045388,"MEAN_MOTION_DOT":0.00019099,"MEAN_MOTION_DDOT":0}]
